{"spkid": "20387668", "covariance": {"epoch": "2454779.5", "labels": ["e", "q", "tp", "node", "peri", "i"], "elements": [{"name": "e", "sigma": 1.04847239381292e-07, "units": null, "value": ".4334994490173776", "title": "eccentricity", "label": "e"}, {"units": "au", "value": ".7350651594061486", "title": "perihelion distance", "sigma": 1.40234288610109e-07, "name": "q", "label": "q"}, {"label": "tp", "title": "time of perihelion passage", "value": "2454628.869618270159", "units": "TDB", "name": "tp", "sigma": 2.42739604199164e-05}, {"label": "node", "sigma": 1.20926008943124e-05, "name": "om", "units": "deg", "title": "longitude of the ascending node", "value": "346.940662488493"}, {"name": "w", "sigma": 1.62832705252576e-05, "title": "argument of perihelion", "value": "276.4674292467352", "units": "deg", "label": "peri"}, {"label": "i", "sigma": 2.49897221229774e-05, "name": "i", "title": "inclination", "value": "22.895143079116", "units": "deg"}], "data": [["1.099294360587799E-14", "-1.470243363007426E-14", "1.155371050423222E-12", "1.429191784245111E-13", "6.908286208362563E-13", "-1.38497372247637E-12"], ["-1.470243363007426E-14", "1.966565570198322E-14", "-1.566394873131043E-12", "-1.981175207614184E-13", "-9.342494994699855E-13", "1.865239824834902E-12"], ["1.155371050423222E-12", "-1.566394873131043E-12", "5.892251544676672E-10", "1.616081728358733E-10", "3.182895629806584E-10", "-3.583104971966658E-10"], ["1.429191784245111E-13", "-1.981175207614184E-13", "1.616081728358733E-10", "1.46230996389124E-10", "-2.104639986311519E-12", "-2.403841220588082E-11"], ["6.908286208362563E-13", "-9.342494994699855E-13", "3.182895629806584E-10", "-2.104639986311519E-12", "2.651448989987243E-10", "-2.494938602337801E-10"], ["-1.38497372247637E-12", "1.865239824834902E-12", "-3.583104971966658E-10", "-2.403841220588082E-11", "-2.494938602337801E-10", "6.244862117836274E-10"]]}, "elements": [{"units": null, "title": "eccentricity", "value": ".4334146516318318", "name": "e", "sigma": "1.0506E-7", "label": "e"}, {"name": "a", "sigma": "7.4534E-9", "value": "1.29711200958813", "title": "semi-major axis", "units": "au", "label": "a"}, {"title": "perihelion distance", "value": ".7349246598250252", "units": "au", "name": "q", "sigma": "1.4028E-7", "label": "q"}, {"sigma": "2.4988E-5", "name": "i", "units": "deg", "title": "inclination; angle with respect to x-y ecliptic plane", "value": "22.89466854392322", "label": "i"}, {"label": "node", "name": "om", "sigma": "1.209E-5", "title": "longitude of the ascending node", "value": "346.8094060076517", "units": "deg"}, {"name": "w", "sigma": "1.6383E-5", "title": "argument of perihelion", "value": "276.6115257782602", "units": "deg", "label": "peri"}, {"label": "M", "title": "mean anomaly", "value": "63.13308346642633", "units": "deg", "sigma": "3.1676E-5", "name": "ma"}, {"units": "TDB", "title": "time of perihelion passage", "value": "2461105.872111875348", "name": "tp", "sigma": "4.6736E-5", "label": "tp"}, {"title": "sidereal orbital period", "value": "539.5909379745506", "units": "d", "sigma": "4.6509E-6", "name": "per", "label": "period"}, {"units": "deg/d", "title": "mean motion", "value": ".6671720643629102", "name": "n", "sigma": "5.7505E-9", "label": "n"}, {"label": "Q", "title": "aphelion distance", "value": "1.859299359351234", "units": "au", "sigma": "1.0684E-8", "name": "ad"}], "epoch": "2461200.5"}